CCSDS_OMM_VERS = 2.0
CREATION_DATE  = 
ORIGINATOR     = 

OBJECT_NAME    = SL-8 R/B
OBJECT_ID      = 1985-006B
CENTER_NAME    = EARTH
REF_FRAME      = TEME
TIME_SYSTEM    = UTC
MEAN_ELEMENT_THEORY = SGP/SGP4

EPOCH          = 2025-12-10T12:47:31.893792
MEAN_MOTION    = 14.37719311
ECCENTRICITY   = .00185794
INCLINATION    = 74.0467
RA_OF_ASC_NODE = 65.1948
ARG_OF_PERICENTER = 357.9970
MEAN_ANOMALY   = 106.0605

EPHEMERIS_TYPE = 0
CLASSIFICATION_TYPE = U
NORAD_CAT_ID   = 15483
ELEMENT_SET_NO = 999
REV_AT_EPOCH   = 14121
BSTAR          = .1490901E-3
MEAN_MOTION_DOT = .423E-5
MEAN_MOTION_DDOT = 0

CCSDS_OMM_VERS = 2.0
CREATION_DATE  = 
ORIGINATOR     = 

OBJECT_NAME    = SL-12 R/B(2)
OBJECT_ID      = 1985-042D
CENTER_NAME    = EARTH
REF_FRAME      = TEME
TIME_SYSTEM    = UTC
MEAN_ELEMENT_THEORY = SGP/SGP4

EPOCH          = 2025-12-10T20:06:05.057856
MEAN_MOTION    = 14.21951171
ECCENTRICITY   = .0037637
INCLINATION    = 71.1086
RA_OF_ASC_NODE = 275.4383
ARG_OF_PERICENTER = 264.2979
MEAN_ANOMALY   = 110.8210

EPHEMERIS_TYPE = 0
CLASSIFICATION_TYPE = U
NORAD_CAT_ID   = 15772
ELEMENT_SET_NO = 999
REV_AT_EPOCH   = 10176
BSTAR          = .12203725E-3
MEAN_MOTION_DOT = .224E-5
MEAN_MOTION_DDOT = 0

CCSDS_OMM_VERS = 2.0
CREATION_DATE  = 
ORIGINATOR     = 

OBJECT_NAME    = SL-14 R/B
OBJECT_ID      = 1985-069B
CENTER_NAME    = EARTH
REF_FRAME      = TEME
TIME_SYSTEM    = UTC
MEAN_ELEMENT_THEORY = SGP/SGP4

EPOCH          = 2025-12-10T17:58:46.048512
MEAN_MOTION    = 14.86320973
ECCENTRICITY   = .00200446
INCLINATION    = 82.5266
RA_OF_ASC_NODE = 108.5742
ARG_OF_PERICENTER = 124.6611
MEAN_ANOMALY   = 235.6499

EPHEMERIS_TYPE = 0
CLASSIFICATION_TYPE = U
NORAD_CAT_ID   = 15945
ELEMENT_SET_NO = 999
REV_AT_EPOCH   = 15962
BSTAR          = .10993959E-3
MEAN_MOTION_DOT = .996E-5
MEAN_MOTION_DDOT = 0

CCSDS_OMM_VERS = 2.0
CREATION_DATE  = 
ORIGINATOR     = 

OBJECT_NAME    = SL-16 R/B
OBJECT_ID      = 1985-097B
CENTER_NAME    = EARTH
REF_FRAME      = TEME
TIME_SYSTEM    = UTC
MEAN_ELEMENT_THEORY = SGP/SGP4

EPOCH          = 2025-12-10T22:27:24.929280
MEAN_MOTION    = 14.16582848
ECCENTRICITY   = .0006574
INCLINATION    = 71.0031
RA_OF_ASC_NODE = 327.4010
ARG_OF_PERICENTER = 13.9037
MEAN_ANOMALY   = 7.1808

EPHEMERIS_TYPE = 0
CLASSIFICATION_TYPE = U
NORAD_CAT_ID   = 16182
ELEMENT_SET_NO = 999
REV_AT_EPOCH   = 7466
BSTAR          = .14205938E-3
MEAN_MOTION_DOT = .236E-5
MEAN_MOTION_DDOT = 0

CCSDS_OMM_VERS = 2.0
CREATION_DATE  = 
ORIGINATOR     = 

OBJECT_NAME    = SL-14 R/B
OBJECT_ID      = 1986-006B
CENTER_NAME    = EARTH
REF_FRAME      = TEME
TIME_SYSTEM    = UTC
MEAN_ELEMENT_THEORY = SGP/SGP4

EPOCH          = 2025-12-10T17:57:10.784736
MEAN_MOTION    = 14.86667889
ECCENTRICITY   = .00759995
INCLINATION    = 82.5264
RA_OF_ASC_NODE = 343.4254
ARG_OF_PERICENTER = 206.4784
MEAN_ANOMALY   = 153.2543

EPHEMERIS_TYPE = 0
CLASSIFICATION_TYPE = U
NORAD_CAT_ID   = 16496
ELEMENT_SET_NO = 999
REV_AT_EPOCH   = 13599
BSTAR          = .10732226E-3
MEAN_MOTION_DOT = .103E-4
MEAN_MOTION_DDOT = 0

CCSDS_OMM_VERS = 2.0
CREATION_DATE  = 
ORIGINATOR     = 

OBJECT_NAME    = COSMOS 1743
OBJECT_ID      = 1986-034A
CENTER_NAME    = EARTH
REF_FRAME      = TEME
TIME_SYSTEM    = UTC
MEAN_ELEMENT_THEORY = SGP/SGP4

EPOCH          = 2025-12-10T21:55:41.405952
MEAN_MOTION    = 15.51991131
ECCENTRICITY   = .00046546
INCLINATION    = 82.5348
RA_OF_ASC_NODE = 166.4884
ARG_OF_PERICENTER = 261.4657
MEAN_ANOMALY   = 98.6068

EPHEMERIS_TYPE = 0
CLASSIFICATION_TYPE = U
NORAD_CAT_ID   = 16719
ELEMENT_SET_NO = 999
REV_AT_EPOCH   = 16645
BSTAR          = .61272075E-3
MEAN_MOTION_DOT = .36996E-3
MEAN_MOTION_DDOT = 0

CCSDS_OMM_VERS = 2.0
CREATION_DATE  = 
ORIGINATOR     = 

OBJECT_NAME    = SL-14 R/B
OBJECT_ID      = 1986-046B
CENTER_NAME    = EARTH
REF_FRAME      = TEME
TIME_SYSTEM    = UTC
MEAN_ELEMENT_THEORY = SGP/SGP4

EPOCH          = 2025-12-10T11:48:00.041760
MEAN_MOTION    = 14.85480822
ECCENTRICITY   = .00236032
INCLINATION    = 82.4810
RA_OF_ASC_NODE = 164.4374
ARG_OF_PERICENTER = 159.4931
MEAN_ANOMALY   = 200.7238

EPHEMERIS_TYPE = 0
CLASSIFICATION_TYPE = U
NORAD_CAT_ID   = 16792
ELEMENT_SET_NO = 999
REV_AT_EPOCH   = 11316
BSTAR          = .92223369E-4
MEAN_MOTION_DOT = .824E-5
MEAN_MOTION_DDOT = 0

CCSDS_OMM_VERS = 2.0
CREATION_DATE  = 
ORIGINATOR     = 

OBJECT_NAME    = SL-14 R/B
OBJECT_ID      = 1986-055B
CENTER_NAME    = EARTH
REF_FRAME      = TEME
TIME_SYSTEM    = UTC
MEAN_ELEMENT_THEORY = SGP/SGP4

EPOCH          = 2025-12-10T21:13:47.852832
MEAN_MOTION    = 14.85528092
ECCENTRICITY   = .00174534
INCLINATION    = 82.5206
RA_OF_ASC_NODE = 210.1160
ARG_OF_PERICENTER = 266.1138
MEAN_ANOMALY   = 104.1776

EPHEMERIS_TYPE = 0
CLASSIFICATION_TYPE = U
NORAD_CAT_ID   = 16882
ELEMENT_SET_NO = 999
REV_AT_EPOCH   = 10618
BSTAR          = .77604903E-4
MEAN_MOTION_DOT = .696E-5
MEAN_MOTION_DDOT = 0

CCSDS_OMM_VERS = 2.0
CREATION_DATE  = 
ORIGINATOR     = 

OBJECT_NAME    = AJISAI (EGS)
OBJECT_ID      = 1986-061A
CENTER_NAME    = EARTH
REF_FRAME      = TEME
TIME_SYSTEM    = UTC
MEAN_ELEMENT_THEORY = SGP/SGP4

EPOCH          = 2025-12-10T23:11:34.181376
MEAN_MOTION    = 12.44514244
ECCENTRICITY   = .00112898
INCLINATION    = 50.0113
RA_OF_ASC_NODE = 6.1703
ARG_OF_PERICENTER = 61.4799
MEAN_ANOMALY   = 323.3914

EPHEMERIS_TYPE = 0
CLASSIFICATION_TYPE = U
NORAD_CAT_ID   = 16908
ELEMENT_SET_NO = 999
REV_AT_EPOCH   = 45695
BSTAR          = .26526494E-4
MEAN_MOTION_DOT = -.94E-6
MEAN_MOTION_DDOT = 0

CCSDS_OMM_VERS = 2.0
CREATION_DATE  = 
ORIGINATOR     = 

OBJECT_NAME    = COSMOS 1812
OBJECT_ID      = 1987-003A
CENTER_NAME    = EARTH
REF_FRAME      = TEME
TIME_SYSTEM    = UTC
MEAN_ELEMENT_THEORY = SGP/SGP4

EPOCH          = 2025-12-10T07:35:36.244608
MEAN_MOTION    = 15.74840987
ECCENTRICITY   = .0007303
INCLINATION    = 82.4871
RA_OF_ASC_NODE = 294.6387
ARG_OF_PERICENTER = 91.0031
MEAN_ANOMALY   = 269.2070

EPHEMERIS_TYPE = 0
CLASSIFICATION_TYPE = U
NORAD_CAT_ID   = 17295
ELEMENT_SET_NO = 999
REV_AT_EPOCH   = 13027
BSTAR          = .84018E-3
MEAN_MOTION_DOT = .125418E-2
MEAN_MOTION_DDOT = 0

CCSDS_OMM_VERS = 2.0
CREATION_DATE  = 
ORIGINATOR     = 

OBJECT_NAME    = SL-14 R/B
OBJECT_ID      = 1987-024B
CENTER_NAME    = EARTH
REF_FRAME      = TEME
TIME_SYSTEM    = UTC
MEAN_ELEMENT_THEORY = SGP/SGP4

EPOCH          = 2025-12-10T19:50:31.374528
MEAN_MOTION    = 14.86020671
ECCENTRICITY   = .00179105
INCLINATION    = 82.5276
RA_OF_ASC_NODE = 176.2516
ARG_OF_PERICENTER = 190.6315
MEAN_ANOMALY   = 169.4526

EPHEMERIS_TYPE = 0
CLASSIFICATION_TYPE = U
NORAD_CAT_ID   = 17567
ELEMENT_SET_NO = 999
REV_AT_EPOCH   = 7493
BSTAR          = .85062703E-4
MEAN_MOTION_DOT = .77E-5
MEAN_MOTION_DDOT = 0

CCSDS_OMM_VERS = 2.0
CREATION_DATE  = 
ORIGINATOR     = 

OBJECT_NAME    = COSMOS 1833
OBJECT_ID      = 1987-027A
CENTER_NAME    = EARTH
REF_FRAME      = TEME
TIME_SYSTEM    = UTC
MEAN_ELEMENT_THEORY = SGP/SGP4

EPOCH          = 2025-12-10T17:39:18.598752
MEAN_MOTION    = 14.13020685
ECCENTRICITY   = .00224406
INCLINATION    = 70.9135
RA_OF_ASC_NODE = 152.9904
ARG_OF_PERICENTER = 334.5254
MEAN_ANOMALY   = 25.4759

EPHEMERIS_TYPE = 0
CLASSIFICATION_TYPE = U
NORAD_CAT_ID   = 17589
ELEMENT_SET_NO = 999
REV_AT_EPOCH   = 99774
BSTAR          = .95231431E-4
MEAN_MOTION_DOT = .13E-5
MEAN_MOTION_DDOT = 0

CCSDS_OMM_VERS = 2.0
CREATION_DATE  = 
ORIGINATOR     = 

OBJECT_NAME    = SL-16 R/B
OBJECT_ID      = 1987-027B
CENTER_NAME    = EARTH
REF_FRAME      = TEME
TIME_SYSTEM    = UTC
MEAN_ELEMENT_THEORY = SGP/SGP4

EPOCH          = 2025-12-10T18:07:53.968800
MEAN_MOTION    = 14.17152135
ECCENTRICITY   = .0007457
INCLINATION    = 71.0027
RA_OF_ASC_NODE = 103.8990
ARG_OF_PERICENTER = 261.6142
MEAN_ANOMALY   = 98.4136

EPHEMERIS_TYPE = 0
CLASSIFICATION_TYPE = U
NORAD_CAT_ID   = 17590
ELEMENT_SET_NO = 999
REV_AT_EPOCH   = 274
BSTAR          = -.1801972E-5
MEAN_MOTION_DOT = -.52E-6
MEAN_MOTION_DDOT = 0

CCSDS_OMM_VERS = 2.0
CREATION_DATE  = 
ORIGINATOR     = 

OBJECT_NAME    = SL-14 R/B
OBJECT_ID      = 1987-038B
CENTER_NAME    = EARTH
REF_FRAME      = TEME
TIME_SYSTEM    = UTC
MEAN_ELEMENT_THEORY = SGP/SGP4

EPOCH          = 2025-12-10T20:14:33.081216
MEAN_MOTION    = 14.85258552
ECCENTRICITY   = .00208888
INCLINATION    = 82.5018
RA_OF_ASC_NODE = 20.4871
ARG_OF_PERICENTER = 97.9030
MEAN_ANOMALY   = 262.4558

EPHEMERIS_TYPE = 0
CLASSIFICATION_TYPE = U
NORAD_CAT_ID   = 17912
ELEMENT_SET_NO = 999
REV_AT_EPOCH   = 6604
BSTAR          = .75389407E-4
MEAN_MOTION_DOT = .674E-5
MEAN_MOTION_DDOT = 0

CCSDS_OMM_VERS = 2.0
CREATION_DATE  = 
ORIGINATOR     = 

OBJECT_NAME    = COSMOS 1844
OBJECT_ID      = 1987-041A
CENTER_NAME    = EARTH
REF_FRAME      = TEME
TIME_SYSTEM    = UTC
MEAN_ELEMENT_THEORY = SGP/SGP4

EPOCH          = 2025-12-10T22:27:09.128448
MEAN_MOTION    = 14.14526113
ECCENTRICITY   = .00301302
INCLINATION    = 70.8980
RA_OF_ASC_NODE = 221.3770
ARG_OF_PERICENTER = 160.0098
MEAN_ANOMALY   = 200.2212

EPHEMERIS_TYPE = 0
CLASSIFICATION_TYPE = U
NORAD_CAT_ID   = 17973
ELEMENT_SET_NO = 999
REV_AT_EPOCH   = 99103
BSTAR          = -.25921091E-4
MEAN_MOTION_DOT = -.98E-6
MEAN_MOTION_DDOT = 0

